{"type": "FeatureCollection", "features": [ {"type": "Feature", "properties": {"norad_id": 36011, "name": "IRIDIUM 33 DEB", "group": "iridium-33-debris", "lat": 32.068243489608975, "lon": -142.9375110699899, "alt_km": 755.0631996703814, "timestamp": "2025-12-03T13:52:09.951929+00:00", "meta": {"OBJECT_NAME": "IRIDIUM 33 DEB", "OBJECT_ID": "1997-051US", "EPOCH": "2025-11-27T22:48:02.153088", "MEAN_MOTION": 14.41259363, "ECCENTRICITY": 0.0016688, "INCLINATION": 86.3418, "RA_OF_ASC_NODE": 41.7752, "ARG_OF_PERICENTER": 268.8947, "MEAN_ANOMALY": 217.0188, "EPHEMERIS_TYPE": 0, "CLASSIFICATION_TYPE": "U", "NORAD_CAT_ID": 36011, "ELEMENT_SET_NO": 999, "REV_AT_EPOCH": 64327, "BSTAR": 0.00058853, "MEAN_MOTION_DOT": 1.923e-05, "MEAN_MOTION_DDOT": 0}, "tle": {"line1": "1 36011U 97051US  25331.95002492  .00001923  00000+0  58853-3 0  9994", "line2": "2 36011  86.3418  41.7752 0016688 268.8947 217.0188 14.41259363643279"}}, "geometry": {"type": "Point", "coordinates": [-142.9375110699899, 32.068243489608975]}}, {"type": "Feature", "properties": {"norad_id": 36012, "name": "IRIDIUM 33 DEB", "group": "iridium-33-debris", "lat": 83.105971516911, "lon": 100.25378211311582, "alt_km": 970.6614771788263, "timestamp": "2025-12-03T13:52:09.951940+00:00", "meta": {"OBJECT_NAME": "IRIDIUM 33 DEB", "OBJECT_ID": "1997-051UT", "EPOCH": "2025-12-03T04:56:48.315264", "MEAN_MOTION": 14.1845141, "ECCENTRICITY": 0.02142376, "INCLINATION": 86.4416, "RA_OF_ASC_NODE": 311.3777, "ARG_OF_PERICENTER": 293.9215, "MEAN_ANOMALY": 63.9663, "EPHEMERIS_TYPE": 0, "CLASSIFICATION_TYPE": "U", "NORAD_CAT_ID": 36012, "ELEMENT_SET_NO": 999, "REV_AT_EPOCH": 65349, "BSTAR": 0.0098372444, "MEAN_MOTION_DOT": 0.00025586, "MEAN_MOTION_DDOT": 0}, "tle": {"line1": "1 36012U 97051UT  25337.20611476  .00025586  00000+0  98372-2 0  9997", "line2": "2 36012  86.4416 311.3777 0214237 293.9215  63.9663 14.18451410653491"}}, "geometry": {"type": "Point", "coordinates": [100.25378211311582, 83.105971516911]}}, {"type": "Feature", "properties": {"norad_id": 36028, "name": "IRIDIUM 33 DEB", "group": "iridium-33-debris", "lat": -9.137865763149385, "lon": 131.59810597786478, "alt_km": 593.1439549748375, "timestamp": "2025-12-03T13:52:09.951950+00:00", "meta": {"OBJECT_NAME": "IRIDIUM 33 DEB", "OBJECT_ID": "1997-051VK", "EPOCH": "2025-12-02T04:53:22.244352", "MEAN_MOTION": 14.94476089, "ECCENTRICITY": 0.0022096, "INCLINATION": 86.3209, "RA_OF_ASC_NODE": 311.6506, "ARG_OF_PERICENTER": 84.2868, "MEAN_ANOMALY": 276.0879, "EPHEMERIS_TYPE": 0, "CLASSIFICATION_TYPE": "U", "NORAD_CAT_ID": 36028, "ELEMENT_SET_NO": 999, "REV_AT_EPOCH": 86967, "BSTAR": 0.0026794, "MEAN_MOTION_DOT": 0.00029149, "MEAN_MOTION_DDOT": 0}, "tle": {"line1": "1 36028U 97051VK  25336.20372968  .00029149  00000+0  26794-2 0  9991", "line2": "2 36028  86.3209 311.6506 0022096  84.2868 276.0879 14.94476089869673"}}, "geometry": {"type": "Point", "coordinates": [131.59810597786478, -9.137865763149385]}}, {"type": "Feature", "properties": {"norad_id": 36080, "name": "IRIDIUM 33 DEB", "group": "iridium-33-debris", "lat": -20.242809961825735, "lon": -166.6609573212545, "alt_km": 730.4309078795668, "timestamp": "2025-12-03T13:52:09.951961+00:00", "meta": {"OBJECT_NAME": "IRIDIUM 33 DEB", "OBJECT_ID": "1997-051VM", "EPOCH": "2025-12-02T08:43:24.933792", "MEAN_MOTION": 14.46532347, "ECCENTRICITY": 0.00171225, "INCLINATION": 86.321, "RA_OF_ASC_NODE": 12.5081, "ARG_OF_PERICENTER": 190.275, "MEAN_ANOMALY": 169.8105, "EPHEMERIS_TYPE": 0, "CLASSIFICATION_TYPE": "U", "NORAD_CAT_ID": 36080, "ELEMENT_SET_NO": 999, "REV_AT_EPOCH": 47264, "BSTAR": 0.00085919057, "MEAN_MOTION_DOT": 3.118e-05, "MEAN_MOTION_DDOT": 0}, "tle": {"line1": "1 36080U 97051VM  25336.36348303  .00003118  00000+0  85919-3 0  9995", "line2": "2 36080  86.3210  12.5081 0017122 190.2750 169.8105 14.46532347472645"}}, "geometry": {"type": "Point", "coordinates": [-166.6609573212545, -20.242809961825735]}}, {"type": "Feature", "properties": {"norad_id": 36083, "name": "IRIDIUM 33 DEB", "group": "iridium-33-debris", "lat": 43.95711541852133, "lon": 41.63097726825513, "alt_km": 759.357113323018, "timestamp": "2025-12-03T13:52:09.951971+00:00", "meta": {"OBJECT_NAME": "IRIDIUM 33 DEB", "OBJECT_ID": "1997-051VQ", "EPOCH": "2025-11-30T10:46:50.880000", "MEAN_MOTION": 14.43133955, "ECCENTRICITY": 0.00245074, "INCLINATION": 86.345, "RA_OF_ASC_NODE": 39.4431, "ARG_OF_PERICENTER": 266.1752, "MEAN_ANOMALY": 93.6646, "EPHEMERIS_TYPE": 0, "CLASSIFICATION_TYPE": "U", "NORAD_CAT_ID": 36083, "ELEMENT_SET_NO": 999, "REV_AT_EPOCH": 85272, "BSTAR": 0.00060468289, "MEAN_MOTION_DOT": 2.056e-05, "MEAN_MOTION_DDOT": 0}, "tle": {"line1": "1 36083U 97051VQ  25334.44920000  .00002056  00000+0  60468-3 0  9997", "line2": "2 36083  86.3450  39.4431 0024507 266.1752  93.6646 14.43133955852725"}}, "geometry": {"type": "Point", "coordinates": [41.63097726825513, 43.95711541852133]}}, {"type": "Feature", "properties": {"norad_id": 36390, "name": "IRIDIUM 33 DEB", "group": "iridium-33-debris", "lat": -55.84177277175597, "lon": -61.89761379333038, "alt_km": 664.1614230450141, "timestamp": "2025-12-03T13:52:09.951981+00:00", "meta": {"OBJECT_NAME": "IRIDIUM 33 DEB", "OBJECT_ID": "1997-051VU", "EPOCH": "2025-11-30T04:37:26.668128", "MEAN_MOTION": 14.73329322, "ECCENTRICITY": 0.00285998, "INCLINATION": 86.289, "RA_OF_ASC_NODE": 305.1428, "ARG_OF_PERICENTER": 206.0853, "MEAN_ANOMALY": 153.8925, "EPHEMERIS_TYPE": 0, "CLASSIFICATION_TYPE": "U", "NORAD_CAT_ID": 36390, "ELEMENT_SET_NO": 999, "REV_AT_EPOCH": 66077, "BSTAR": 0.001268982, "MEAN_MOTION_DOT": 8.29e-05, "MEAN_MOTION_DDOT": 0}, "tle": {"line1": "1 36390U 97051VU  25334.19266977  .00008290  00000+0  12690-2 0  9995", "line2": "2 36390  86.2890 305.1428 0028599 206.0853 153.8925 14.73329322660771"}}, "geometry": {"type": "Point", "coordinates": [-61.89761379333038, -55.84177277175597]}}, {"type": "Feature", "properties": {"norad_id": 36483, "name": "IRIDIUM 33 DEB", "group": "iridium-33-debris", "lat": 57.916633092845984, "lon": -129.38534750660304, "alt_km": 727.5934008107297, "timestamp": "2025-12-03T13:52:09.951991+00:00", "meta": {"OBJECT_NAME": "IRIDIUM 33 DEB", "OBJECT_ID": "1997-051VZ", "EPOCH": "2025-12-01T23:06:08.589024", "MEAN_MOTION": 14.45743317, "ECCENTRICITY": 0.00104053, "INCLINATION": 86.3803, "RA_OF_ASC_NODE": 57.101, "ARG_OF_PERICENTER": 156.2304, "MEAN_ANOMALY": 203.9381, "EPHEMERIS_TYPE": 0, "CLASSIFICATION_TYPE": "U", "NORAD_CAT_ID": 36483, "ELEMENT_SET_NO": 999, "REV_AT_EPOCH": 64990, "BSTAR": 0.00063754459, "MEAN_MOTION_DOT": 2.279e-05, "MEAN_MOTION_DDOT": 0}, "tle": {"line1": "1 36483U 97051VZ  25335.96259941  .00002279  00000+0  63754-3 0  9996", "line2": "2 36483  86.3803  57.1010 0010405 156.2304 203.9381 14.45743317649902"}}, "geometry": {"type": "Point", "coordinates": [-129.38534750660304, 57.916633092845984]}}, {"type": "Feature", "properties": {"norad_id": 36490, "name": "IRIDIUM 33 DEB", "group": "iridium-33-debris", "lat": 77.12543123692322, "lon": 178.45254447289503, "alt_km": 631.372255354413, "timestamp": "2025-12-03T13:52:09.952002+00:00", "meta": {"OBJECT_NAME": "IRIDIUM 33 DEB", "OBJECT_ID": "1997-051WG", "EPOCH": "2025-12-03T08:31:33.585312", "MEAN_MOTION": 14.75863778, "ECCENTRICITY": 0.00054972, "INCLINATION": 86.3663, "RA_OF_ASC_NODE": 14.6956, "ARG_OF_PERICENTER": 104.0809, "MEAN_ANOMALY": 256.1022, "EPHEMERIS_TYPE": 0, "CLASSIFICATION_TYPE": "U", "NORAD_CAT_ID": 36490, "ELEMENT_SET_NO": 999, "REV_AT_EPOCH": 86346, "BSTAR": 0.0019535947, "MEAN_MOTION_DOT": 0.00013443, "MEAN_MOTION_DDOT": 0}, "tle": {"line1": "1 36490U 97051WG  25337.35524983  .00013443  00000+0  19536-2 0  9993", "line2": "2 36490  86.3663  14.6956 0005497 104.0809 256.1022 14.75863778863465"}}, "geometry": {"type": "Point", "coordinates": [178.45254447289503, 77.12543123692322]}}, {"type": "Feature", "properties": {"norad_id": 36493, "name": "IRIDIUM 33 DEB", "group": "iridium-33-debris", "lat": 23.808191861884712, "lon": 17.36040257832783, "alt_km": 668.7014333639081, "timestamp": "2025-12-03T13:52:09.952012+00:00", "meta": {"OBJECT_NAME": "IRIDIUM 33 DEB", "OBJECT_ID": "1997-051WK", "EPOCH": "2025-12-03T08:50:35.978208", "MEAN_MOTION": 14.65031895, "ECCENTRICITY": 0.00113192, "INCLINATION": 86.3578, "RA_OF_ASC_NODE": 15.8429, "ARG_OF_PERICENTER": 36.2208, "MEAN_ANOMALY": 323.9769, "EPHEMERIS_TYPE": 0, "CLASSIFICATION_TYPE": "U", "NORAD_CAT_ID": 36493, "ELEMENT_SET_NO": 999, "REV_AT_EPOCH": 74381, "BSTAR": 0.0016122779, "MEAN_MOTION_DOT": 8.675e-05, "MEAN_MOTION_DDOT": 0}, "tle": {"line1": "1 36493U 97051WK  25337.36847197  .00008675  00000+0  16123-2 0  9992", "line2": "2 36493  86.3578  15.8429 0011319  36.2208 323.9769 14.65031895743813"}}, "geometry": {"type": "Point", "coordinates": [17.36040257832783, 23.808191861884712]}}, {"type": "Feature", "properties": {"norad_id": 37548, "name": "IRIDIUM 33 DEB", "group": "iridium-33-debris", "lat": -50.81195195013686, "lon": 42.8664922257778, "alt_km": 728.3913449039928, "timestamp": "2025-12-03T13:52:09.952022+00:00", "meta": {"OBJECT_NAME": "IRIDIUM 33 DEB", "OBJECT_ID": "1997-051XH", "EPOCH": "2025-11-29T22:23:36.250944", "MEAN_MOTION": 14.5113469, "ECCENTRICITY": 0.00243457, "INCLINATION": 86.3524, "RA_OF_ASC_NODE": 48.9393, "ARG_OF_PERICENTER": 232.6782, "MEAN_ANOMALY": 127.2204, "EPHEMERIS_TYPE": 0, "CLASSIFICATION_TYPE": "U", "NORAD_CAT_ID": 37548, "ELEMENT_SET_NO": 999, "REV_AT_EPOCH": 65346, "BSTAR": 0.0012745087, "MEAN_MOTION_DOT": 5.093e-05, "MEAN_MOTION_DDOT": 0}, "tle": {"line1": "1 37548U 97051XH  25333.93305846  .00005093  00000+0  12745-2 0  9990", "line2": "2 37548  86.3524  48.9393 0024345 232.6782 127.2204 14.51134690653467"}}, "geometry": {"type": "Point", "coordinates": [42.8664922257778, -50.81195195013686]}}]}